[{"OBJECT_NAME":"STARLINK-30069","OBJECT_ID":"2023-079M","EPOCH":"2026-03-08T11:34:15.947328","MEAN_MOTION":15.26726881,"ECCENTRICITY":4.69e-5,"INCLINATION":42.9986,"RA_OF_ASC_NODE":110.4464,"ARG_OF_PERICENTER":272.6695,"MEAN_ANOMALY":87.4103,"EPHEMERIS_TYPE":0,"CLASSIFICATION_TYPE":"U","NORAD_CAT_ID":56834,"ELEMENT_SET_NO":999,"REV_AT_EPOCH":15274,"BSTAR":-8.0472e-5,"MEAN_MOTION_DOT":-2.416e-5,"MEAN_MOTION_DDOT":0},{"OBJECT_NAME":"STARLINK-32686","OBJECT_ID":"2024-229A","EPOCH":"2026-03-09T21:18:29.280096","MEAN_MOTION":15.27625097,"ECCENTRICITY":0.00023437,"INCLINATION":43.0011,"RA_OF_ASC_NODE":265.9713,"ARG_OF_PERICENTER":257.361,"MEAN_ANOMALY":102.698,"EPHEMERIS_TYPE":0,"CLASSIFICATION_TYPE":"U","NORAD_CAT_ID":62192,"ELEMENT_SET_NO":999,"REV_AT_EPOCH":7063,"BSTAR":0.001166985,"MEAN_MOTION_DOT":0.00032036,"MEAN_MOTION_DDOT":0}]
